[{"OBJECT_NAME":"NEE-02 KRYSAOR","OBJECT_ID":"2013-066AB","EPOCH":"2026-03-09T09:04:24.249216","MEAN_MOTION":14.86160783,"ECCENTRICITY":0.006776,"INCLINATION":97.8816,"RA_OF_ASC_NODE":8.3817,"ARG_OF_PERICENTER":38.0821,"MEAN_ANOMALY":322.5155,"EPHEMERIS_TYPE":0,"CLASSIFICATION_TYPE":"U","NORAD_CAT_ID":39441,"ELEMENT_SET_NO":999,"REV_AT_EPOCH":66137,"BSTAR":0.00046918892,"MEAN_MOTION_DOT":4.234e-5,"MEAN_MOTION_DDOT":0},{"OBJECT_NAME":"STARLINK-36227","OBJECT_ID":"2025-298W","EPOCH":"2026-03-09T22:24:17.887968","MEAN_MOTION":14.99130266,"ECCENTRICITY":0.00025619,"INCLINATION":70.0021,"RA_OF_ASC_NODE":13.8485,"ARG_OF_PERICENTER":273.927,"MEAN_ANOMALY":86.1597,"EPHEMERIS_TYPE":0,"CLASSIFICATION_TYPE":"U","NORAD_CAT_ID":67095,"ELEMENT_SET_NO":999,"REV_AT_EPOCH":1325,"BSTAR":-1.7246e-5,"MEAN_MOTION_DOT":-3.04e-6,"MEAN_MOTION_DDOT":0}]
